EOSSAT-1                
1 55053U 23001AW  26068.73619225  .00007695  00000+0  24844-3 0  9992
2 55053  97.3357 130.2294 0011263 110.3168 249.9285 15.32339828176689
STARLINK-31468          
1 58998U 24036A   26068.40471766  .00002766  00000+0  10551-3 0  9996
2 58998  53.1605  79.1732 0001187  91.3032 268.8105 15.30192121115298
